[{"OBJECT_NAME":"STARLINK-30215","OBJECT_ID":"2023-105R","EPOCH":"2026-03-09T22:00:01.999584","MEAN_MOTION":15.21884858,"ECCENTRICITY":0.00010316,"INCLINATION":42.9992,"RA_OF_ASC_NODE":258.6075,"ARG_OF_PERICENTER":307.4613,"MEAN_ANOMALY":139.0312,"EPHEMERIS_TYPE":0,"CLASSIFICATION_TYPE":"U","NORAD_CAT_ID":57445,"ELEMENT_SET_NO":999,"REV_AT_EPOCH":578,"BSTAR":0.0053865498,"MEAN_MOTION_DOT":0.00126903,"MEAN_MOTION_DDOT":0},{"OBJECT_NAME":"YAOGAN-43 03C","OBJECT_ID":"2024-190C","EPOCH":"2026-03-09T13:09:38.342016","MEAN_MOTION":15.23076374,"ECCENTRICITY":0.00060361,"INCLINATION":34.9956,"RA_OF_ASC_NODE":104.7228,"ARG_OF_PERICENTER":169.773,"MEAN_ANOMALY":190.3109,"EPHEMERIS_TYPE":0,"CLASSIFICATION_TYPE":"U","NORAD_CAT_ID":61619,"ELEMENT_SET_NO":999,"REV_AT_EPOCH":7662,"BSTAR":2.5482015e-5,"MEAN_MOTION_DOT":5.78e-6,"MEAN_MOTION_DDOT":0}]
